CCSDS_OMM_VERS = 2.0
CREATION_DATE  = 
ORIGINATOR     = 

OBJECT_NAME    = IDEFIX & ARIANE 42P R/B
OBJECT_ID      = 2002-021B
CENTER_NAME    = EARTH
REF_FRAME      = TEME
TIME_SYSTEM    = UTC
MEAN_ELEMENT_THEORY = SGP/SGP4

EPOCH          = 2026-02-22T17:49:28.392672
MEAN_MOTION    = 14.31014448
ECCENTRICITY   = .00108105
INCLINATION    = 98.5857
RA_OF_ASC_NODE = 352.5291
ARG_OF_PERICENTER = 228.6181
MEAN_ANOMALY   = 131.4074

EPHEMERIS_TYPE = 0
CLASSIFICATION_TYPE = U
NORAD_CAT_ID   = 27422
ELEMENT_SET_NO = 999
REV_AT_EPOCH   = 24188
BSTAR          = .12471138E-3
MEAN_MOTION_DOT = .285E-5
MEAN_MOTION_DDOT = 0

CCSDS_OMM_VERS = 2.0
CREATION_DATE  = 
ORIGINATOR     = 

OBJECT_NAME    = AQUA
OBJECT_ID      = 2002-022A
CENTER_NAME    = EARTH
REF_FRAME      = TEME
TIME_SYSTEM    = UTC
MEAN_ELEMENT_THEORY = SGP/SGP4

EPOCH          = 2026-02-22T21:27:36.059904
MEAN_MOTION    = 14.61936703
ECCENTRICITY   = .00009776
INCLINATION    = 98.4148
RA_OF_ASC_NODE = 20.9929
ARG_OF_PERICENTER = 47.4228
MEAN_ANOMALY   = 337.2360

EPHEMERIS_TYPE = 0
CLASSIFICATION_TYPE = U
NORAD_CAT_ID   = 27424
ELEMENT_SET_NO = 999
REV_AT_EPOCH   = 26657
BSTAR          = .21809913E-3
MEAN_MOTION_DOT = .1043E-4
MEAN_MOTION_DDOT = 0

CCSDS_OMM_VERS = 2.0
CREATION_DATE  = 
ORIGINATOR     = 

OBJECT_NAME    = CZ-4B R/B
OBJECT_ID      = 2002-024C
CENTER_NAME    = EARTH
REF_FRAME      = TEME
TIME_SYSTEM    = UTC
MEAN_ELEMENT_THEORY = SGP/SGP4

EPOCH          = 2026-02-23T01:42:33.960960
MEAN_MOTION    = 14.14544807
ECCENTRICITY   = .0051044
INCLINATION    = 98.8874
RA_OF_ASC_NODE = 107.5493
ARG_OF_PERICENTER = 65.1998
MEAN_ANOMALY   = 325.7750

EPHEMERIS_TYPE = 0
CLASSIFICATION_TYPE = U
NORAD_CAT_ID   = 27432
ELEMENT_SET_NO = 999
REV_AT_EPOCH   = 22717
BSTAR          = .36157E-4
MEAN_MOTION_DOT = .26E-6
MEAN_MOTION_DDOT = 0

CCSDS_OMM_VERS = 2.0
CREATION_DATE  = 
ORIGINATOR     = 

OBJECT_NAME    = MIDORI II (ADEOS-II)
OBJECT_ID      = 2002-056A
CENTER_NAME    = EARTH
REF_FRAME      = TEME
TIME_SYSTEM    = UTC
MEAN_ELEMENT_THEORY = SGP/SGP4

EPOCH          = 2026-02-23T04:08:36.807072
MEAN_MOTION    = 14.29272855
ECCENTRICITY   = .0002026
INCLINATION    = 98.7743
RA_OF_ASC_NODE = 12.5526
ARG_OF_PERICENTER = 63.7486
MEAN_ANOMALY   = 296.3903

EPHEMERIS_TYPE = 0
CLASSIFICATION_TYPE = U
NORAD_CAT_ID   = 27597
ELEMENT_SET_NO = 999
REV_AT_EPOCH   = 20822
BSTAR          = .11926E-3
MEAN_MOTION_DOT = .258E-5
MEAN_MOTION_DDOT = 0

CCSDS_OMM_VERS = 2.0
CREATION_DATE  = 
ORIGINATOR     = 

OBJECT_NAME    = H-2A R/B
OBJECT_ID      = 2002-056E
CENTER_NAME    = EARTH
REF_FRAME      = TEME
TIME_SYSTEM    = UTC
MEAN_ELEMENT_THEORY = SGP/SGP4

EPOCH          = 2026-02-23T04:21:45.271008
MEAN_MOTION    = 14.33749873
ECCENTRICITY   = .0069604
INCLINATION    = 98.3175
RA_OF_ASC_NODE = 15.1022
ARG_OF_PERICENTER = 203.9847
MEAN_ANOMALY   = 166.4828

EPHEMERIS_TYPE = 0
CLASSIFICATION_TYPE = U
NORAD_CAT_ID   = 27601
ELEMENT_SET_NO = 999
REV_AT_EPOCH   = 21203
BSTAR          = .11277E-3
MEAN_MOTION_DOT = .28E-5
MEAN_MOTION_DDOT = 0

CCSDS_OMM_VERS = 2.0
CREATION_DATE  = 
ORIGINATOR     = 

OBJECT_NAME    = CZ-4B R/B
OBJECT_ID      = 2003-049C
CENTER_NAME    = EARTH
REF_FRAME      = TEME
TIME_SYSTEM    = UTC
MEAN_ELEMENT_THEORY = SGP/SGP4

EPOCH          = 2026-02-22T22:36:47.223936
MEAN_MOTION    = 14.55003568
ECCENTRICITY   = .0047014
INCLINATION    = 98.6865
RA_OF_ASC_NODE = 48.2703
ARG_OF_PERICENTER = 277.0080
MEAN_ANOMALY   = 82.5770

EPHEMERIS_TYPE = 0
CLASSIFICATION_TYPE = U
NORAD_CAT_ID   = 28059
ELEMENT_SET_NO = 999
REV_AT_EPOCH   = 18445
BSTAR          = .10987E-3
MEAN_MOTION_DOT = .428E-5
MEAN_MOTION_DDOT = 0

CCSDS_OMM_VERS = 2.0
CREATION_DATE  = 
ORIGINATOR     = 

OBJECT_NAME    = CZ-2C R/B
OBJECT_ID      = 2004-012C
CENTER_NAME    = EARTH
REF_FRAME      = TEME
TIME_SYSTEM    = UTC
MEAN_ELEMENT_THEORY = SGP/SGP4

EPOCH          = 2026-02-23T03:29:21.962112
MEAN_MOTION    = 15.62699928
ECCENTRICITY   = .0014233
INCLINATION    = 97.7262
RA_OF_ASC_NODE = 118.0783
ARG_OF_PERICENTER = 7.7276
MEAN_ANOMALY   = 352.4198

EPHEMERIS_TYPE = 0
CLASSIFICATION_TYPE = U
NORAD_CAT_ID   = 28222
ELEMENT_SET_NO = 999
REV_AT_EPOCH   = 20200
BSTAR          = .64325E-3
MEAN_MOTION_DOT = .58109E-3
MEAN_MOTION_DDOT = 0

CCSDS_OMM_VERS = 2.0
CREATION_DATE  = 
ORIGINATOR     = 

OBJECT_NAME    = SL-16 R/B
OBJECT_ID      = 2004-021B
CENTER_NAME    = EARTH
REF_FRAME      = TEME
TIME_SYSTEM    = UTC
MEAN_ELEMENT_THEORY = SGP/SGP4

EPOCH          = 2026-02-23T00:45:36.241344
MEAN_MOTION    = 14.14598460
ECCENTRICITY   = .0003347
INCLINATION    = 70.9989
RA_OF_ASC_NODE = 263.2557
ARG_OF_PERICENTER = 42.9000
MEAN_ANOMALY   = 317.2382

EPHEMERIS_TYPE = 0
CLASSIFICATION_TYPE = U
NORAD_CAT_ID   = 28353
ELEMENT_SET_NO = 999
REV_AT_EPOCH   = 12076
BSTAR          = .11432E-3
MEAN_MOTION_DOT = .172E-5
MEAN_MOTION_DDOT = 0

CCSDS_OMM_VERS = 2.0
CREATION_DATE  = 
ORIGINATOR     = 

OBJECT_NAME    = CZ-4B R/B
OBJECT_ID      = 2004-035C
CENTER_NAME    = EARTH
REF_FRAME      = TEME
TIME_SYSTEM    = UTC
MEAN_ELEMENT_THEORY = SGP/SGP4

EPOCH          = 2026-02-23T01:15:40.457376
MEAN_MOTION    = 15.28768070
ECCENTRICITY   = .0032817
INCLINATION    = 97.3525
RA_OF_ASC_NODE = 88.4720
ARG_OF_PERICENTER = 23.8784
MEAN_ANOMALY   = 336.3970

EPHEMERIS_TYPE = 0
CLASSIFICATION_TYPE = U
NORAD_CAT_ID   = 28415
ELEMENT_SET_NO = 999
REV_AT_EPOCH   = 17767
BSTAR          = .3525E-3
MEAN_MOTION_DOT = .9943E-4
MEAN_MOTION_DDOT = 0

CCSDS_OMM_VERS = 2.0
CREATION_DATE  = 
ORIGINATOR     = 

OBJECT_NAME    = CZ-2C R/B
OBJECT_ID      = 2004-046B
CENTER_NAME    = EARTH
REF_FRAME      = TEME
TIME_SYSTEM    = UTC
MEAN_ELEMENT_THEORY = SGP/SGP4

EPOCH          = 2026-02-23T04:21:02.541024
MEAN_MOTION    = 14.26986746
ECCENTRICITY   = .0138989
INCLINATION    = 98.1989
RA_OF_ASC_NODE = 330.0672
ARG_OF_PERICENTER = 197.3227
MEAN_ANOMALY   = 162.3188

EPHEMERIS_TYPE = 0
CLASSIFICATION_TYPE = U
NORAD_CAT_ID   = 28480
ELEMENT_SET_NO = 999
REV_AT_EPOCH   = 10643
BSTAR          = .62495E-4
MEAN_MOTION_DOT = .127E-5
MEAN_MOTION_DDOT = 0

CCSDS_OMM_VERS = 2.0
CREATION_DATE  = 
ORIGINATOR     = 

OBJECT_NAME    = ARIANE 5 R/B
OBJECT_ID      = 2004-049H
CENTER_NAME    = EARTH
REF_FRAME      = TEME
TIME_SYSTEM    = UTC
MEAN_ELEMENT_THEORY = SGP/SGP4

EPOCH          = 2026-02-23T00:19:35.813280
MEAN_MOTION    = 14.85235236
ECCENTRICITY   = .0084964
INCLINATION    = 98.2603
RA_OF_ASC_NODE = 221.9239
ARG_OF_PERICENTER = 39.3433
MEAN_ANOMALY   = 321.3911

EPHEMERIS_TYPE = 0
CLASSIFICATION_TYPE = U
NORAD_CAT_ID   = 28499
ELEMENT_SET_NO = 999
REV_AT_EPOCH   = 14361
BSTAR          = .96601E-4
MEAN_MOTION_DOT = .819E-5
MEAN_MOTION_DDOT = 0

CCSDS_OMM_VERS = 2.0
CREATION_DATE  = 
ORIGINATOR     = 

OBJECT_NAME    = CZ-2D R/B
OBJECT_ID      = 2005-024B
CENTER_NAME    = EARTH
REF_FRAME      = TEME
TIME_SYSTEM    = UTC
MEAN_ELEMENT_THEORY = SGP/SGP4

EPOCH          = 2026-02-23T00:21:00.514656
MEAN_MOTION    = 15.58735264
ECCENTRICITY   = .0007465
INCLINATION    = 97.3617
RA_OF_ASC_NODE = 68.6386
ARG_OF_PERICENTER = 81.6614
MEAN_ANOMALY   = 278.5488

EPHEMERIS_TYPE = 0
CLASSIFICATION_TYPE = U
NORAD_CAT_ID   = 28738
ELEMENT_SET_NO = 999
REV_AT_EPOCH   = 13749
BSTAR          = .59161E-3
MEAN_MOTION_DOT = .45684E-3
MEAN_MOTION_DDOT = 0

